{
  "norad_id": 61597,
  "name": "ONEWEB-0689",
  "history": [
    {
      "epoch": "2026-04-11T08:30:55.571040Z",
      "apogee_km": 1218.9353332321043,
      "perigee_km": 1216.4530156043047,
      "latitude_deg": 3.077632032547772e-05,
      "longitude_deg": 67.01786077653364,
      "height_km": 1220.1554256575694,
      "semi_major_axis_km": 7595.831174418205,
      "eccentricity": 0.0001634,
      "inclination_deg": 87.8931,
      "raan_deg": 34.3249,
      "arg_perigee_deg": 69.9583,
      "mean_anomaly_deg": 290.1721,
      "mean_motion_rev_day": 13.11413973
    },
    {
      "epoch": "2026-04-13T00:48:00.950976Z",
      "apogee_km": 1218.917094326981,
      "perigee_km": 1216.468350741029,
      "latitude_deg": 4.842842098205307e-05,
      "longitude_deg": -179.242295560465,
      "height_km": 1220.1821609403028,
      "semi_major_axis_km": 7595.829722534005,
      "eccentricity": 0.00016119,
      "inclination_deg": 87.8936,
      "raan_deg": 33.9916,
      "arg_perigee_deg": 71.0707,
      "mean_anomaly_deg": 289.0596,
      "mean_motion_rev_day": 13.11414349
    },
    {
      "epoch": "2026-04-14T06:05:53.750112Z",
      "apogee_km": 1218.902366552663,
      "perigee_km": 1216.471702861556,
      "latitude_deg": 7.819535043774544e-05,
      "longitude_deg": 99.84208398665433,
      "height_km": 1220.179272973321,
      "semi_major_axis_km": 7595.82403470711,
      "eccentricity": 0.00016,
      "inclination_deg": 87.8936,
      "raan_deg": 33.7492,
      "arg_perigee_deg": 71.0632,
      "mean_anomaly_deg": 289.067,
      "mean_motion_rev_day": 13.11415822
    },
    {
      "epoch": "2026-04-15T20:33:06.746112Z",
      "apogee_km": 1219.1635627453397,
      "perigee_km": 1216.1966365862108,
      "latitude_deg": -3.1863916856242075e-05,
      "longitude_deg": -118.85930084804536,
      "height_km": 1220.0819664809858,
      "semi_major_axis_km": 7595.8170996657755,
      "eccentricity": 0.0001953,
      "inclination_deg": 87.8942,
      "raan_deg": 33.4312,
      "arg_perigee_deg": 70.9496,
      "mean_anomaly_deg": 289.1843,
      "mean_motion_rev_day": 13.11417618
    },
    {
      "epoch": "2026-04-16T18:31:31.065312Z",
      "apogee_km": 1218.9145832198974,
      "perigee_km": 1216.4520182783945,
      "latitude_deg": -1.0539018169807481e-05,
      "longitude_deg": -89.5442446960289,
      "height_km": 1220.1269942413142,
      "semi_major_axis_km": 7595.820300749146,
      "eccentricity": 0.0001621,
      "inclination_deg": 87.8965,
      "raan_deg": 33.25,
      "arg_perigee_deg": 68.9139,
      "mean_anomaly_deg": 291.2162,
      "mean_motion_rev_day": 13.11416789
    },
    {
      "epoch": "2026-04-17T18:19:47.505792Z",
      "apogee_km": 1219.1138434444556,
      "perigee_km": 1216.2540168642536,
      "latitude_deg": 2.349766268955061e-05,
      "longitude_deg": -87.78776295609967,
      "height_km": 1220.0682427069446,
      "semi_major_axis_km": 7595.820930154355,
      "eccentricity": 0.00018825,
      "inclination_deg": 87.8936,
      "raan_deg": 33.0526,
      "arg_perigee_deg": 69.4521,
      "mean_anomaly_deg": 290.6809,
      "mean_motion_rev_day": 13.11416626
    },
    {
      "epoch": "2026-04-18T12:38:27.427776Z",
      "apogee_km": 1218.8589608835891,
      "perigee_km": 1216.4510948107627,
      "latitude_deg": -5.331986867401012e-05,
      "longitude_deg": -3.3575168193745424,
      "height_km": 1220.212612185152,
      "semi_major_axis_km": 7595.792027847176,
      "eccentricity": 0.0001585,
      "inclination_deg": 87.8942,
      "raan_deg": 32.9012,
      "arg_perigee_deg": 74.1366,
      "mean_anomaly_deg": 285.9936,
      "mean_motion_rev_day": 13.11424111
    },
    {
      "epoch": "2026-04-19T19:46:11.989632Z",
      "apogee_km": 1218.8498865768042,
      "perigee_km": 1216.50581811337,
      "latitude_deg": 2.1899295017259307e-06,
      "longitude_deg": -111.82921467811187,
      "height_km": 1220.2235647407574,
      "semi_major_axis_km": 7595.814852345087,
      "eccentricity": 0.0001543,
      "inclination_deg": 87.8941,
      "raan_deg": 32.6436,
      "arg_perigee_deg": 73.0841,
      "mean_anomaly_deg": 287.0456,
      "mean_motion_rev_day": 13.114182
    },
    {
      "epoch": "2026-04-20T12:15:00.216288Z",
      "apogee_km": 1218.8450741062916,
      "perigee_km": 1216.5123990935817,
      "latitude_deg": 1.6929148506846215e-05,
      "longitude_deg": 0.1568279744796793,
      "height_km": 1220.241111680699,
      "semi_major_axis_km": 7595.815736599936,
      "eccentricity": 0.00015355,
      "inclination_deg": 87.894,
      "raan_deg": 32.5074,
      "arg_perigee_deg": 73.8529,
      "mean_anomaly_deg": 286.2768,
      "mean_motion_rev_day": 13.11417971
    },
    {
      "epoch": "2026-04-21T19:22:44.774688Z",
      "apogee_km": 1218.8397555323745,
      "perigee_km": 1216.5230309224398,
      "latitude_deg": -3.1737282174146467e-05,
      "longitude_deg": -108.3153614133441,
      "height_km": 1220.260946803593,
      "semi_major_axis_km": 7595.818393227407,
      "eccentricity": 0.0001525,
      "inclination_deg": 87.8938,
      "raan_deg": 32.2493,
      "arg_perigee_deg": 74.621,
      "mean_anomaly_deg": 285.5086,
      "mean_motion_rev_day": 13.11417283
    },
    {
      "epoch": "2026-04-22T17:21:09.213120Z",
      "apogee_km": 1218.8378152292744,
      "perigee_km": 1216.528685873107,
      "latitude_deg": -1.022134656257386e-05,
      "longitude_deg": -79.00120742276457,
      "height_km": 1220.2720305443447,
      "semi_major_axis_km": 7595.820250551191,
      "eccentricity": 0.000152,
      "inclination_deg": 87.8942,
      "raan_deg": 32.0677,
      "arg_perigee_deg": 75.0434,
      "mean_anomaly_deg": 285.0862,
      "mean_motion_rev_day": 13.11416802
    },
    {
      "epoch": "2026-04-23T11:39:49.615488Z",
      "apogee_km": 1218.8226943471955,
      "perigee_km": 1216.5450115062358,
      "latitude_deg": 5.0768052692123e-06,
      "longitude_deg": 5.427233198530267,
      "height_km": 1220.2801596641514,
      "semi_major_axis_km": 7595.820852926715,
      "eccentricity": 0.00014993,
      "inclination_deg": 87.8943,
      "raan_deg": 31.9165,
      "arg_perigee_deg": 75.2223,
      "mean_anomaly_deg": 284.9071,
      "mean_motion_rev_day": 13.11416646
    },
    {
      "epoch": "2026-04-24T18:47:34.662048Z",
      "apogee_km": 1218.814815820244,
      "perigee_km": 1216.5710076643145,
      "latitude_deg": -7.689247049004758e-05,
      "longitude_deg": -103.04599539892524,
      "height_km": 1220.300842356651,
      "semi_major_axis_km": 7595.8299117422785,
      "eccentricity": 0.0001477,
      "inclination_deg": 87.8941,
      "raan_deg": 31.6594,
      "arg_perigee_deg": 75.6055,
      "mean_anomaly_deg": 284.5236,
      "mean_motion_rev_day": 13.114143
    },
    {
      "epoch": "2026-04-25T18:35:51.340992Z",
      "apogee_km": 1218.8245476938946,
      "perigee_km": 1216.5564336051866,
      "latitude_deg": 7.994285400578049e-06,
      "longitude_deg": -101.2896096743056,
      "height_km": 1220.3334744392766,
      "semi_major_axis_km": 7595.827490649541,
      "eccentricity": 0.0001493,
      "inclination_deg": 87.8941,
      "raan_deg": 31.4629,
      "arg_perigee_deg": 77.5858,
      "mean_anomaly_deg": 282.5437,
      "mean_motion_rev_day": 13.11414927
    },
    {
      "epoch": "2026-04-26T18:24:08.077824Z",
      "apogee_km": 1218.8171399546836,
      "perigee_km": 1216.560875797305,
      "latitude_deg": 6.577234576625335e-05,
      "longitude_deg": -99.53376614880747,
      "height_km": 1220.3423395541222,
      "semi_major_axis_km": 7595.826007875994,
      "eccentricity": 0.00014852,
      "inclination_deg": 87.8942,
      "raan_deg": 31.2661,
      "arg_perigee_deg": 78.0571,
      "mean_anomaly_deg": 282.0724,
      "mean_motion_rev_day": 13.11415311
    },
    {
      "epoch": "2026-04-27T18:12:24.880320Z",
      "apogee_km": 1218.814610103057,
      "perigee_km": 1216.5647262439434,
      "latitude_deg": -2.066214622058142e-05,
      "longitude_deg": -97.77880190789651,
      "height_km": 1220.2967257956263,
      "semi_major_axis_km": 7595.8266681734995,
      "eccentricity": 0.0001481,
      "inclination_deg": 87.8947,
      "raan_deg": 31.0687,
      "arg_perigee_deg": 75.5998,
      "mean_anomaly_deg": 284.5294,
      "mean_motion_rev_day": 13.1141514
    },
    {
      "epoch": "2026-04-28T18:00:41.546304Z",
      "apogee_km": 1218.813003719395,
      "perigee_km": 1216.5585635172156,
      "latitude_deg": 3.238608891105288e-05,
      "longitude_deg": -96.02236223010033,
      "height_km": 1220.3543016880633,
      "semi_major_axis_km": 7595.822783618305,
      "eccentricity": 0.0001484,
      "inclination_deg": 87.8944,
      "raan_deg": 30.8722,
      "arg_perigee_deg": 78.8349,
      "mean_anomaly_deg": 281.2946,
      "mean_motion_rev_day": 13.11416146
    },
    {
      "epoch": "2026-04-29T17:48:58.144896Z",
      "apogee_km": 1218.8071886452644,
      "perigee_km": 1216.5588259231072,
      "latitude_deg": -5.291277228998626e-05,
      "longitude_deg": -94.26594640836967,
      "height_km": 1220.3622930472072,
      "semi_major_axis_km": 7595.8200072841855,
      "eccentricity": 0.000148,
      "inclination_deg": 87.8944,
      "raan_deg": 30.6754,
      "arg_perigee_deg": 79.3623,
      "mean_anomaly_deg": 280.7671,
      "mean_motion_rev_day": 13.11416865
    },
    {
      "epoch": "2026-04-30T12:07:38.506656Z",
      "apogee_km": 1218.8028914977203,
      "perigee_km": 1216.55650466743,
      "latitude_deg": -1.2493763510566032e-05,
      "longitude_deg": -9.837633839449957,
      "height_km": 1220.387103922361,
      "semi_major_axis_km": 7595.816698082575,
      "eccentricity": 0.00014787,
      "inclination_deg": 87.8947,
      "raan_deg": 30.5239,
      "arg_perigee_deg": 80.8094,
      "mean_anomaly_deg": 279.3201,
      "mean_motion_rev_day": 13.11417722
    }
  ]
}